FENGYUN 1C DEB          
1 30245U 99025XE  17345.90383747  .00000247  00000-0  26469-3 0  9993
2 30245  98.9636 112.5979 0204800  93.6875  26.8884 13.73433285545372
